OBJECT_NAME,OBJECT_ID,EPOCH,MEAN_MOTION,ECCENTRICITY,INCLINATION,RA_OF_ASC_NODE,ARG_OF_PERICENTER,MEAN_ANOMALY,EPHEMERIS_TYPE,CLASSIFICATION_TYPE,NORAD_CAT_ID,ELEMENT_SET_NO,REV_AT_EPOCH,BSTAR,MEAN_MOTION_DOT,MEAN_MOTION_DDOT
STARLINK-38050,2026-159G,2026-07-23T06:00:02.000160,15.75237727,.00016441,97.2857,43.3906,63.3082,15.3751,0,U,69981,999,314,-.84111837E-3,-.124046E-2,0
STARLINK-38065,2026-159H,2026-07-23T06:00:02.000160,15.79585562,.00019037,97.2858,43.3970,64.7167,30.9954,0,U,69982,999,314,-.14621384E-1,-.2303404E-1,0
STARLINK-38077,2026-159J,2026-07-23T06:00:02.000160,15.80812579,.00013817,97.2864,43.4004,95.2367,5.3758,0,U,69983,999,314,-.72421958E-4,-.1399E-3,0
STARLINK-38068,2026-159K,2026-07-23T06:00:02.000160,15.80820183,.00012903,97.2861,43.4022,84.3815,20.4963,0,U,69984,999,314,-.5138523E-5,-.1126E-4,0
STARLINK-38089,2026-159L,2026-07-23T06:00:02.000160,15.80788787,.00014599,97.2861,43.4041,98.9011,10.2598,0,U,69985,999,314,.36047107E-3,.69371E-3,0
STARLINK-38073,2026-159M,2026-07-23T06:00:02.000160,15.80790981,.00011268,97.2862,43.4057,82.3727,31.0606,0,U,69986,999,314,.30579676E-3,.5876E-3,0
STARLINK-38099,2026-159N,2026-07-23T06:00:02.000160,15.78767530,.00019472,97.2854,43.4054,80.4173,35.6596,0,U,69987,999,314,-.15163064E-1,-.2301656E-1,0
STARLINK-38064,2026-159P,2026-07-23T06:00:02.000160,15.80788494,.00013894,97.2860,43.4116,100.0305,26.2289,0,U,69988,999,314,.2934673E-3,.56364E-3,0
STARLINK-38080,2026-159Q,2026-07-23T06:00:02.000160,15.80815180,.00013073,97.2860,43.4099,78.9830,42.9902,0,U,69989,999,314,.5366142E-4,.10148E-3,0
STARLINK-38070,2026-159R,2026-07-23T06:00:02.000160,15.80788201,.00013755,97.2859,43.4124,86.8988,43.6351,0,U,69990,999,314,.25586487E-3,.49082E-3,0
STARLINK-38042,2026-159S,2026-07-23T06:00:02.000160,15.80828260,.00014005,97.2856,43.4150,85.5450,49.2575,0,U,69991,999,314,-.12003778E-3,-.23087E-3,0
STARLINK-38071,2026-159T,2026-07-23T06:00:02.000160,15.80790094,.00012593,97.2860,43.4163,99.3086,39.7704,0,U,69992,999,314,.2908384E-3,.55858E-3,0
STARLINK-38082,2026-159U,2026-07-23T06:00:02.000160,15.80812687,.00013132,97.2859,43.4184,83.3070,60.0359,0,U,69993,999,314,.69851782E-4,.13256E-3,0
STARLINK-38090,2026-159V,2026-07-23T06:00:02.000160,15.80788856,.00014222,97.2860,43.4199,103.4919,44.1340,0,U,69994,999,314,.31949764E-3,.61413E-3,0
STARLINK-38084,2026-159W,2026-07-23T06:00:02.000160,15.75905624,.00012676,97.2860,43.4186,57.9878,86.3241,0,U,69995,999,314,-.79774935E-2,-.1101047E-1,0
STARLINK-38085,2026-159X,2026-07-23T06:00:02.000160,15.80814699,.000129,97.2857,43.4243,81.9907,74.1727,0,U,69996,999,314,.7137796E-4,.13551E-3,0
STARLINK-38091,2026-159Y,2026-07-23T06:00:02.000160,15.80795456,.00013482,97.2857,43.4257,91.2345,69.2103,0,U,69997,999,314,.19829543E-3,.37971E-3,0
STARLINK-38086,2026-159Z,2026-07-23T06:00:02.000160,15.80803788,.00014665,97.2859,43.4279,91.0474,73.6665,0,U,69998,999,314,.16925212E-3,.3238E-3,0
SARAMAGO,2026-067CY,2026-07-23T06:20:34.743264,15.20566446,.0005969,97.4593,162.3685,231.3116,128.7586,0,U,100000,999,1718,.36934872E-3,.8024E-4,0
STARLINK-38128,2026-160A,2026-07-23T06:21:11.113344,15.78572625,.00044248,69.9997,2.7770,273.7172,86.3522,0,U,100001,999,266,.85601293E-3,.151802E-2,0
STARLINK-37711,2026-160B,2026-07-22T19:41:21.013440,15.78463814,.00035429,69.9989,4.0323,288.4464,71.6351,0,U,100002,999,259,.26585615E-2,.488433E-2,0
STARLINK-38123,2026-160C,2026-07-22T21:11:30.977952,15.78521314,.00033677,70.0025,3.8558,298.7286,61.3575,0,U,100003,999,260,.19548439E-2,.354379E-2,0
STARLINK-38107,2026-160D,2026-07-22T22:41:40.364448,15.78572463,.00043045,70.0002,3.6704,271.8177,88.2530,0,U,100004,999,261,.11442174E-2,.204224E-2,0
STARLINK-38122,2026-160E,2026-07-22T18:05:44.556288,15.79771806,.0008163,70.0029,4.2075,279.0944,80.9333,0,U,100005,999,258,-.2467503E-2,-.434025E-2,0
STARLINK-38117,2026-160F,2026-07-23T04:44:31.502976,15.78627070,.00042149,70.0008,2.9440,273.3252,86.7466,0,U,100006,999,265,.17040307E-2,.30873E-2,0
STARLINK-38054,2026-160G,2026-07-22T21:07:10.529472,15.78588826,.00040605,70.0005,3.8428,274.5141,85.5595,0,U,100007,999,260,.96275494E-3,.171257E-2,0
STARLINK-38124,2026-160H,2026-07-22T19:34:50.766240,15.78665880,.00039058,70.0030,4.0223,295.2817,64.7979,0,U,100008,999,259,.12806659E-2,.230241E-2,0
STARLINK-38119,2026-160J,2026-07-22T21:05:00.966624,15.78592685,.00035351,70.0009,3.8367,285.5018,74.5792,0,U,100009,999,260,.63378255E-3,.111889E-2,0
STARLINK-38045,2026-160K,2026-07-22T21:03:55.731168,15.78606213,.00035492,70.0010,3.8338,279.7639,80.3160,0,U,100010,999,260,-.40367163E-3,-.70222E-3,0
STARLINK-38051,2026-160L,2026-07-22T21:02:52.062144,15.78777737,.00035076,70.0026,3.8316,316.5183,43.5740,0,U,100011,999,260,.14660352E-2,.266016E-2,0
