{"epoch":1784817359,"count":18317,"objects":[{"id":"69981","name":"STARLINK-38050","type":"PAYLOAD","l1":"1 69981U 26159G   26204.25002315 -.00124046  00000-0 -84112-3 0  9996","l2":"2 69981  97.2857  43.3906 0001644  63.3082  15.3751 15.75237727  3141"},{"id":"69982","name":"STARLINK-38065","type":"PAYLOAD","l1":"1 69982U 26159H   26204.25002315 -.02303404  00000-0 -14621-1 0  9992","l2":"2 69982  97.2858  43.3970 0001904  64.7167  30.9954 15.79585562  3147"},{"id":"69983","name":"STARLINK-38077","type":"PAYLOAD","l1":"1 69983U 26159J   26204.25002315 -.00013990  00000-0 -72422-4 0  9995","l2":"2 69983  97.2864  43.4004 0001382  95.2367   5.3758 15.80812579  3146"},{"id":"69984","name":"STARLINK-38068","type":"PAYLOAD","l1":"1 69984U 26159K   26204.25002315 -.00001126  00000-0 -51385-5 0  9990","l2":"2 69984  97.2861  43.4022 0001290  84.3815  20.4963 15.80820183  3145"},{"id":"69985","name":"STARLINK-38089","type":"PAYLOAD","l1":"1 69985U 26159L   26204.25002315  .00069371  00000-0  36047-3 0  9991","l2":"2 69985  97.2861  43.4041 0001460  98.9011  10.2598 15.80788787  3149"},{"id":"69986","name":"STARLINK-38073","type":"PAYLOAD","l1":"1 69986U 26159M   26204.25002315  .00058760  00000-0  30580-3 0  9998","l2":"2 69986  97.2862  43.4057 0001127  82.3727  31.0606 15.80790981  3149"},{"id":"69987","name":"STARLINK-38099","type":"PAYLOAD","l1":"1 69987U 26159N   26204.25002315 -.02301656  00000-0 -15163-1 0  9996","l2":"2 69987  97.2854  43.4054 0001947  80.4173  35.6596 15.78767530  3141"},{"id":"69988","name":"STARLINK-38064","type":"PAYLOAD","l1":"1 69988U 26159P   26204.25002315  .00056364  00000-0  29347-3 0  9997","l2":"2 69988  97.2860  43.4116 0001389 100.0305  26.2289 15.80788494  3144"},{"id":"69989","name":"STARLINK-38080","type":"PAYLOAD","l1":"1 69989U 26159Q   26204.25002315  .00010148  00000-0  53661-4 0  9995","l2":"2 69989  97.2860  43.4099 0001307  78.9830  42.9902 15.80815180  3141"},{"id":"69990","name":"STARLINK-38070","type":"PAYLOAD","l1":"1 69990U 26159R   26204.25002315  .00049082  00000-0  25586-3 0  9990","l2":"2 69990  97.2859  43.4124 0001376  86.8988  43.6351 15.80788201  3147"},{"id":"69991","name":"STARLINK-38042","type":"PAYLOAD","l1":"1 69991U 26159S   26204.25002315 -.00023087  00000-0 -12004-3 0  9991","l2":"2 69991  97.2856  43.4150 0001400  85.5450  49.2575 15.80828260  3142"},{"id":"69992","name":"STARLINK-38071","type":"PAYLOAD","l1":"1 69992U 26159T   26204.25002315  .00055858  00000-0  29084-3 0  9997","l2":"2 69992  97.2860  43.4163 0001259  99.3086  39.7704 15.80790094  3143"},{"id":"69993","name":"STARLINK-38082","type":"PAYLOAD","l1":"1 69993U 26159U   26204.25002315  .00013256  00000-0  69852-4 0  9992","l2":"2 69993  97.2859  43.4184 0001313  83.3070  60.0359 15.80812687  3148"},{"id":"69994","name":"STARLINK-38090","type":"PAYLOAD","l1":"1 69994U 26159V   26204.25002315  .00061413  00000-0  31950-3 0  9998","l2":"2 69994  97.2860  43.4199 0001422 103.4919  44.1340 15.80788856  3147"},{"id":"69995","name":"STARLINK-38084","type":"PAYLOAD","l1":"1 69995U 26159W   26204.25002315 -.01101047  00000-0 -79775-2 0  9996","l2":"2 69995  97.2860  43.4186 0001268  57.9878  86.3241 15.75905624  3145"},{"id":"69996","name":"STARLINK-38085","type":"PAYLOAD","l1":"1 69996U 26159X   26204.25002315  .00013551  00000-0  71378-4 0  9999","l2":"2 69996  97.2857  43.4243 0001290  81.9907  74.1727 15.80814699  3142"},{"id":"69997","name":"STARLINK-38091","type":"PAYLOAD","l1":"1 69997U 26159Y   26204.25002315  .00037971  00000-0  19830-3 0  9996","l2":"2 69997  97.2857  43.4257 0001348  91.2345  69.2103 15.80795456  3144"},{"id":"69998","name":"STARLINK-38086","type":"PAYLOAD","l1":"1 69998U 26159Z   26204.25002315  .00032380  00000-0  16925-3 0  9998","l2":"2 69998  97.2859  43.4279 0001467  91.0474  73.6665 15.80803788  3144"},{"id":"100000","name":"SARAMAGO","type":"PAYLOAD","l1":"1 A0000U 26067CY  26204.26429101  .00008024  00000-0  36935-3 0  9993","l2":"2 A0000  97.4593 162.3685 0005969 231.3116 128.7586 15.20566446 17189"},{"id":"100001","name":"STARLINK-38128","type":"PAYLOAD","l1":"1 A0001U 26160A   26204.26471196  .00151802  00000-0  85601-3 0  9996","l2":"2 A0001  69.9997   2.7770 0004425 273.7172  86.3522 15.78572625  2667"},{"id":"100002","name":"STARLINK-37711","type":"PAYLOAD","l1":"1 A0002U 26160B   26203.82038210  .00488433  00000-0  26586-2 0  9993","l2":"2 A0002  69.9989   4.0323 0003543 288.4464  71.6351 15.78463814  2593"},{"id":"100003","name":"STARLINK-38123","type":"PAYLOAD","l1":"1 A0003U 26160C   26203.88299743  .00354379  00000-0  19548-2 0  9991","l2":"2 A0003  70.0025   3.8558 0003368 298.7286  61.3575 15.78521314  2602"},{"id":"100004","name":"STARLINK-38107","type":"PAYLOAD","l1":"1 A0004U 26160D   26203.94560607  .00204224  00000-0  11442-2 0  9997","l2":"2 A0004  70.0002   3.6704 0004305 271.8177  88.2530 15.78572463  2613"},{"id":"100005","name":"STARLINK-38122","type":"PAYLOAD","l1":"1 A0005U 26160E   26203.75398792 -.00434025  00000-0 -24675-2 0  9999","l2":"2 A0005  70.0029   4.2075 0008163 279.0944  80.9333 15.79771806  2588"},{"id":"100006","name":"STARLINK-38117","type":"PAYLOAD","l1":"1 A0006U 26160F   26204.19758684  .00308730  00000-0  17040-2 0  9998","l2":"2 A0006  70.0008   2.9440 0004215 273.3252  86.7466 15.78627070  2651"},{"id":"100007","name":"STARLINK-38054","type":"PAYLOAD","l1":"1 A0007U 26160G   26203.87998298  .00171257  00000-0  96275-3 0  9990","l2":"2 A0007  70.0005   3.8428 0004061 274.5141  85.5595 15.78588826  2604"},{"id":"100008","name":"STARLINK-38124","type":"PAYLOAD","l1":"1 A0008U 26160H   26203.81586535  .00230241  00000-0  12807-2 0  9999","l2":"2 A0008  70.0030   4.0223 0003906 295.2817  64.7979 15.78665880  2595"},{"id":"100009","name":"STARLINK-38119","type":"PAYLOAD","l1":"1 A0009U 26160J   26203.87848341  .00111889  00000-0  63378-3 0  9998","l2":"2 A0009  70.0009   3.8367 0003535 285.5018  74.5792 15.78592685  2607"},{"id":"100010","name":"STARLINK-38045","type":"PAYLOAD","l1":"1 A0010U 26160K   26203.87772837 -.00070222  00000-0 -40367-3 0  9996","l2":"2 A0010  70.0010   3.8338 0003549 279.7639  80.3160 15.78606213  2605"},{"id":"100011","name":"STARLINK-38051","type":"PAYLOAD","l1":"1 A0011U 26160L   26203.87699146  .00266016  00000-0  14660-2 0  9990","l2":"2 A0011  70.0026   3.8316 0003508 316.5183  43.5740 15.78777737  2603"}]}